CCSDS_OMM_VERS = 2.0
CREATION_DATE  = 
ORIGINATOR     = 

OBJECT_NAME    = ISS (ZARYA)
OBJECT_ID      = 1998-067A
CENTER_NAME    = EARTH
REF_FRAME      = TEME
TIME_SYSTEM    = UTC
MEAN_ELEMENT_THEORY = SGP/SGP4

EPOCH          = 2026-01-15T06:33:14.525856
MEAN_MOTION    = 15.49304898
ECCENTRICITY   = .00077635
INCLINATION    = 51.6333
RA_OF_ASC_NODE = 336.4632
ARG_OF_PERICENTER = 20.7339
MEAN_ANOMALY   = 339.3964

EPHEMERIS_TYPE = 0
CLASSIFICATION_TYPE = U
NORAD_CAT_ID   = 25544
ELEMENT_SET_NO = 999
REV_AT_EPOCH   = 54805
BSTAR          = .16988254E-3
MEAN_MOTION_DOT = .9025E-4
MEAN_MOTION_DDOT = 0

CCSDS_OMM_VERS = 2.0
CREATION_DATE  = 
ORIGINATOR     = 

OBJECT_NAME    = CZ-4B R/B
OBJECT_ID      = 1999-025C
CENTER_NAME    = EARTH
REF_FRAME      = TEME
TIME_SYSTEM    = UTC
MEAN_ELEMENT_THEORY = SGP/SGP4

EPOCH          = 2026-01-15T14:57:42.835680
MEAN_MOTION    = 14.18252378
ECCENTRICITY   = .0037877
INCLINATION    = 98.6724
RA_OF_ASC_NODE = 61.1379
ARG_OF_PERICENTER = 136.4932
MEAN_ANOMALY   = 338.6471

EPHEMERIS_TYPE = 0
CLASSIFICATION_TYPE = U
NORAD_CAT_ID   = 25732
ELEMENT_SET_NO = 999
REV_AT_EPOCH   = 38064
BSTAR          = .37694827E-4
MEAN_MOTION_DOT = .35E-6
MEAN_MOTION_DDOT = 0

CCSDS_OMM_VERS = 2.0
CREATION_DATE  = 
ORIGINATOR     = 

OBJECT_NAME    = OKEAN-O
OBJECT_ID      = 1999-039A
CENTER_NAME    = EARTH
REF_FRAME      = TEME
TIME_SYSTEM    = UTC
MEAN_ELEMENT_THEORY = SGP/SGP4

EPOCH          = 2026-01-15T14:08:49.766496
MEAN_MOTION    = 14.80227716
ECCENTRICITY   = .00017129
INCLINATION    = 97.9552
RA_OF_ASC_NODE = 75.9909
ARG_OF_PERICENTER = 107.3982
MEAN_ANOMALY   = 252.7417

EPHEMERIS_TYPE = 0
CLASSIFICATION_TYPE = U
NORAD_CAT_ID   = 25860
ELEMENT_SET_NO = 999
REV_AT_EPOCH   = 42653
BSTAR          = .67904169E-4
MEAN_MOTION_DOT = .464E-5
MEAN_MOTION_DDOT = 0

CCSDS_OMM_VERS = 2.0
CREATION_DATE  = 
ORIGINATOR     = 

OBJECT_NAME    = SL-16 R/B
OBJECT_ID      = 1999-039B
CENTER_NAME    = EARTH
REF_FRAME      = TEME
TIME_SYSTEM    = UTC
MEAN_ELEMENT_THEORY = SGP/SGP4

EPOCH          = 2026-01-15T14:52:19.550208
MEAN_MOTION    = 14.81641659
ECCENTRICITY   = .00160929
INCLINATION    = 98.0075
RA_OF_ASC_NODE = 74.7652
ARG_OF_PERICENTER = 71.6394
MEAN_ANOMALY   = 288.6568

EPHEMERIS_TYPE = 0
CLASSIFICATION_TYPE = U
NORAD_CAT_ID   = 25861
ELEMENT_SET_NO = 999
REV_AT_EPOCH   = 42900
BSTAR          = .52077758E-4
MEAN_MOTION_DOT = .356E-5
MEAN_MOTION_DDOT = 0

CCSDS_OMM_VERS = 2.0
CREATION_DATE  = 
ORIGINATOR     = 

OBJECT_NAME    = DELTA 2 R/B
OBJECT_ID      = 1999-041E
CENTER_NAME    = EARTH
REF_FRAME      = TEME
TIME_SYSTEM    = UTC
MEAN_ELEMENT_THEORY = SGP/SGP4

EPOCH          = 2026-01-15T13:23:46.834080
MEAN_MOTION    = 14.11553653
ECCENTRICITY   = .05035874
INCLINATION    = 51.7613
RA_OF_ASC_NODE = 153.4350
ARG_OF_PERICENTER = 191.4652
MEAN_ANOMALY   = 167.4450

EPHEMERIS_TYPE = 0
CLASSIFICATION_TYPE = U
NORAD_CAT_ID   = 25876
ELEMENT_SET_NO = 999
REV_AT_EPOCH   = 35552
BSTAR          = .34797598E-3
MEAN_MOTION_DOT = .1928E-4
MEAN_MOTION_DDOT = 0

CCSDS_OMM_VERS = 2.0
CREATION_DATE  = 
ORIGINATOR     = 

OBJECT_NAME    = HELIOS 1B
OBJECT_ID      = 1999-064A
CENTER_NAME    = EARTH
REF_FRAME      = TEME
TIME_SYSTEM    = UTC
MEAN_ELEMENT_THEORY = SGP/SGP4

EPOCH          = 2026-01-15T07:20:37.461696
MEAN_MOTION    = 14.87439158
ECCENTRICITY   = .00006163
INCLINATION    = 98.1747
RA_OF_ASC_NODE = 275.9690
ARG_OF_PERICENTER = 134.8449
MEAN_ANOMALY   = 225.2816

EPHEMERIS_TYPE = 0
CLASSIFICATION_TYPE = U
NORAD_CAT_ID   = 25977
ELEMENT_SET_NO = 999
REV_AT_EPOCH   = 67732
BSTAR          = .14171039E-3
MEAN_MOTION_DOT = .1224E-4
MEAN_MOTION_DDOT = 0

CCSDS_OMM_VERS = 2.0
CREATION_DATE  = 
ORIGINATOR     = 

OBJECT_NAME    = TERRA
OBJECT_ID      = 1999-068A
CENTER_NAME    = EARTH
REF_FRAME      = TEME
TIME_SYSTEM    = UTC
MEAN_ELEMENT_THEORY = SGP/SGP4

EPOCH          = 2026-01-15T15:46:54.842880
MEAN_MOTION    = 14.60944684
ECCENTRICITY   = .00023204
INCLINATION    = 97.9700
RA_OF_ASC_NODE = 71.0892
ARG_OF_PERICENTER = 22.4353
MEAN_ANOMALY   = 146.5615

EPHEMERIS_TYPE = 0
CLASSIFICATION_TYPE = U
NORAD_CAT_ID   = 25994
ELEMENT_SET_NO = 999
REV_AT_EPOCH   = 38733
BSTAR          = .68395883E-4
MEAN_MOTION_DOT = .291E-5
MEAN_MOTION_DDOT = 0

CCSDS_OMM_VERS = 2.0
CREATION_DATE  = 
ORIGINATOR     = 

OBJECT_NAME    = SL-16 R/B
OBJECT_ID      = 2000-006B
CENTER_NAME    = EARTH
REF_FRAME      = TEME
TIME_SYSTEM    = UTC
MEAN_ELEMENT_THEORY = SGP/SGP4

EPOCH          = 2026-01-15T14:23:45.191040
MEAN_MOTION    = 14.15813454
ECCENTRICITY   = .00189409
INCLINATION    = 71.0003
RA_OF_ASC_NODE = 209.4637
ARG_OF_PERICENTER = 263.2494
MEAN_ANOMALY   = 96.6473

EPHEMERIS_TYPE = 0
CLASSIFICATION_TYPE = U
NORAD_CAT_ID   = 26070
ELEMENT_SET_NO = 999
REV_AT_EPOCH   = 34104
BSTAR          = -.11191453E-3
MEAN_MOTION_DOT = -.268E-5
MEAN_MOTION_DDOT = 0

CCSDS_OMM_VERS = 2.0
CREATION_DATE  = 
ORIGINATOR     = 

OBJECT_NAME    = TITAN 4B R/B
OBJECT_ID      = 2000-047B
CENTER_NAME    = EARTH
REF_FRAME      = TEME
TIME_SYSTEM    = UTC
MEAN_ELEMENT_THEORY = SGP/SGP4

EPOCH          = 2026-01-15T14:46:08.492448
MEAN_MOTION    = 15.09052438
ECCENTRICITY   = .00369662
INCLINATION    = 67.9873
RA_OF_ASC_NODE = 189.6956
ARG_OF_PERICENTER = 102.5267
MEAN_ANOMALY   = 258.0021

EPHEMERIS_TYPE = 0
CLASSIFICATION_TYPE = U
NORAD_CAT_ID   = 26474
ELEMENT_SET_NO = 999
REV_AT_EPOCH   = 38490
BSTAR          = .13409702E-3
MEAN_MOTION_DOT = .2024E-4
MEAN_MOTION_DDOT = 0

CCSDS_OMM_VERS = 2.0
CREATION_DATE  = 
ORIGINATOR     = 

OBJECT_NAME    = ENVISAT
OBJECT_ID      = 2002-009A
CENTER_NAME    = EARTH
REF_FRAME      = TEME
TIME_SYSTEM    = UTC
MEAN_ELEMENT_THEORY = SGP/SGP4

EPOCH          = 2026-01-15T11:59:23.339616
MEAN_MOTION    = 14.39013344
ECCENTRICITY   = .00011658
INCLINATION    = 98.3644
RA_OF_ASC_NODE = 330.3927
ARG_OF_PERICENTER = 91.2094
MEAN_ANOMALY   = 20.6193

EPHEMERIS_TYPE = 0
CLASSIFICATION_TYPE = U
NORAD_CAT_ID   = 27386
ELEMENT_SET_NO = 999
REV_AT_EPOCH   = 25152
BSTAR          = .33966947E-4
MEAN_MOTION_DOT = .62E-6
MEAN_MOTION_DDOT = 0

